{
 "type": "FeatureCollection",
 "provenance": {
  "generated_by": "src/build_tuticorin_v3.py",
  "kind": "Tuticorin cross-pass scoring (our own AIS match), v3 detector",
  "ais_source": "our_ais",
  "scoring_semantics": "PERSISTENT_UNIDENTIFIED, GFW!=AIS, heuristic score",
  "status": "ok",
  "n_features": 34
 },
 "features": [
  {
   "type": "Feature",
   "geometry": {
    "type": "Point",
    "coordinates": [
     78.22982904178235,
     8.721128602503743
    ]
   },
   "properties": {
    "row": 1427.5,
    "col": 108.5,
    "area_px": 8,
    "mean_intensity_db": -12.984612027005362,
    "max_intensity_db": -11.658084562280528,
    "local_background_db": -20.58655910116689,
    "contrast_db": 7.601947074161529,
    "tcr_db": 8.9,
    "eccentricity": 0.816,
    "solidity": 1.0,
    "aspect_ratio": 1.73,
    "fill_ratio": 0.5,
    "local_bg_from_global_median": false,
    "match_status": "MATCHED",
    "match_distance_m": 126.9,
    "matched_mmsi": "419000783",
    "matched_name": "CG 239",
    "matched_flag": "IND",
    "matched_type": "OTHER",
    "matched_hours": 1,
    "detector_version": "v3.1-audit",
    "detector_config": "79d269e96db1",
    "id": "2026-01-06-01",
    "date": "2026-01-06",
    "cluster_id": 1,
    "cluster_size": 1,
    "confidence_class": "CLUTTER",
    "confidence": 5,
    "reasons": [
     "contrast 7.6 dB, 8 px",
     "contrast below 12 dB evidence threshold: not separable from sea clutter at the current bar"
    ],
    "score_basis": "heuristic evidence/ranking score 0-100 (not a calibrated probability)",
    "ais_evidence": "matched",
    "crop": "2026-01-06-01.png"
   }
  },
  {
   "type": "Feature",
   "geometry": {
    "type": "Point",
    "coordinates": [
     78.28582517308062,
     8.72196890808823
    ]
   },
   "properties": {
    "row": 1422.6780821917807,
    "col": 725.1849315068494,
    "area_px": 146,
    "mean_intensity_db": 3.7698700208335927,
    "max_intensity_db": 10.583885356123819,
    "local_background_db": -18.581678384925514,
    "contrast_db": 22.351548405759107,
    "tcr_db": 29.2,
    "eccentricity": 0.954,
    "solidity": 0.834,
    "aspect_ratio": 3.35,
    "fill_ratio": 0.44,
    "local_bg_from_global_median": false,
    "match_status": "MATCHED",
    "match_distance_m": 508.5,
    "matched_mmsi": "636023636",
    "matched_name": "HONG FU",
    "matched_flag": "LBR",
    "matched_type": "CARGO",
    "matched_hours": 3,
    "detector_version": "v3.1-audit",
    "detector_config": "79d269e96db1",
    "id": "2026-01-06-02",
    "date": "2026-01-06",
    "cluster_id": 2,
    "cluster_size": 1,
    "confidence_class": "VESSEL_CANDIDATE",
    "confidence": 90,
    "reasons": [
     "contrast 22.4 dB, 146 px",
     "AIS vessel matched by us nearby (HONG FU, 508 m)"
    ],
    "score_basis": "heuristic evidence/ranking score 0-100 (not a calibrated probability)",
    "ais_evidence": "matched",
    "crop": "2026-01-06-02.png"
   }
  },
  {
   "type": "Feature",
   "geometry": {
    "type": "Point",
    "coordinates": [
     78.27753376142975,
     8.724488187530481
    ]
   },
   "properties": {
    "row": 1394.1384615384616,
    "col": 634.0846153846154,
    "area_px": 130,
    "mean_intensity_db": -3.7289320021884658,
    "max_intensity_db": 2.5142402382339113,
    "local_background_db": -20.045666267983783,
    "contrast_db": 16.31673426579532,
    "tcr_db": 22.6,
    "eccentricity": 0.931,
    "solidity": 0.867,
    "aspect_ratio": 2.73,
    "fill_ratio": 0.52,
    "local_bg_from_global_median": false,
    "match_status": "MATCHED",
    "match_distance_m": 567.9,
    "matched_mmsi": "352005913",
    "matched_name": "BO RUN JIU ZHOU",
    "matched_flag": "PAN",
    "matched_type": "CARGO",
    "matched_hours": 24,
    "detector_version": "v3.1-audit",
    "detector_config": "79d269e96db1",
    "id": "2026-01-06-03",
    "date": "2026-01-06",
    "cluster_id": 3,
    "cluster_size": 1,
    "confidence_class": "VESSEL_CANDIDATE",
    "confidence": 82,
    "reasons": [
     "contrast 16.3 dB, 130 px",
     "AIS vessel matched by us nearby (BO RUN JIU ZHOU, 568 m)"
    ],
    "score_basis": "heuristic evidence/ranking score 0-100 (not a calibrated probability)",
    "ais_evidence": "matched",
    "crop": "2026-01-06-03.png"
   }
  },
  {
   "type": "Feature",
   "geometry": {
    "type": "Point",
    "coordinates": [
     78.30319282702112,
     8.72920177180275
    ]
   },
   "properties": {
    "row": 1344.0,
    "col": 917.0,
    "area_px": 5,
    "mean_intensity_db": -13.562184059549725,
    "max_intensity_db": -12.653605649346964,
    "local_background_db": -20.196219214502737,
    "contrast_db": 6.634035154953011,
    "tcr_db": 7.5,
    "eccentricity": 0.0,
    "solidity": 1.0,
    "aspect_ratio": 1.0,
    "fill_ratio": 0.56,
    "local_bg_from_global_median": false,
    "match_status": "UNMATCHED",
    "match_distance_m": 1774.6,
    "matched_mmsi": null,
    "matched_name": null,
    "matched_flag": null,
    "matched_type": null,
    "matched_hours": null,
    "detector_version": "v3.1-audit",
    "detector_config": "79d269e96db1",
    "id": "2026-01-06-04",
    "date": "2026-01-06",
    "cluster_id": 6,
    "cluster_size": 1,
    "confidence_class": "CLUTTER",
    "confidence": 3,
    "reasons": [
     "contrast 6.6 dB, 5 px",
     "contrast below 12 dB evidence threshold: not separable from sea clutter at the current bar"
    ],
    "score_basis": "heuristic evidence/ranking score 0-100 (not a calibrated probability)",
    "ais_evidence": "unmatched",
    "crop": "2026-01-06-04.png"
   }
  },
  {
   "type": "Feature",
   "geometry": {
    "type": "Point",
    "coordinates": [
     78.27174464695449,
     8.730566227466921
    ]
   },
   "properties": {
    "row": 1326.4088050314465,
    "col": 570.8238993710692,
    "area_px": 159,
    "mean_intensity_db": 3.5539488448016163,
    "max_intensity_db": 10.510899682391912,
    "local_background_db": -19.123531461964593,
    "contrast_db": 22.67748030676621,
    "tcr_db": 29.6,
    "eccentricity": 0.979,
    "solidity": 0.779,
    "aspect_ratio": 4.89,
    "fill_ratio": 0.39,
    "local_bg_from_global_median": false,
    "match_status": "MATCHED",
    "match_distance_m": 202.2,
    "matched_mmsi": "538011871",
    "matched_name": "SSI IRRESISTIBLE",
    "matched_flag": "MHL",
    "matched_type": "CARGO",
    "matched_hours": 24,
    "detector_version": "v3.1-audit",
    "detector_config": "79d269e96db1",
    "id": "2026-01-06-05",
    "date": "2026-01-06",
    "cluster_id": 8,
    "cluster_size": 1,
    "confidence_class": "VESSEL_CANDIDATE",
    "confidence": 90,
    "reasons": [
     "contrast 22.7 dB, 159 px",
     "AIS vessel matched by us nearby (SSI IRRESISTIBLE, 202 m)"
    ],
    "score_basis": "heuristic evidence/ranking score 0-100 (not a calibrated probability)",
    "ais_evidence": "matched",
    "crop": "2026-01-06-05.png"
   }
  },
  {
   "type": "Feature",
   "geometry": {
    "type": "Point",
    "coordinates": [
     78.26931136149639,
     8.740865968499307
    ]
   },
   "properties": {
    "row": 1212.2211538461538,
    "col": 544.8557692307693,
    "area_px": 104,
    "mean_intensity_db": -1.146420549202499,
    "max_intensity_db": 7.474586805389107,
    "local_background_db": -19.706460771998927,
    "contrast_db": 18.560040222796427,
    "tcr_db": 27.2,
    "eccentricity": 0.915,
    "solidity": 0.812,
    "aspect_ratio": 2.48,
    "fill_ratio": 0.52,
    "local_bg_from_global_median": false,
    "match_status": "MATCHED",
    "match_distance_m": 122.2,
    "matched_mmsi": "341970001",
    "matched_name": "NEREUS PROGRESS",
    "matched_flag": "KNA",
    "matched_type": "OTHER",
    "matched_hours": 20,
    "detector_version": "v3.1-audit",
    "detector_config": "79d269e96db1",
    "id": "2026-01-06-06",
    "date": "2026-01-06",
    "cluster_id": 11,
    "cluster_size": 4,
    "confidence_class": "ANCHORED_VESSEL",
    "confidence": 97,
    "reasons": [
     "contrast 18.6 dB, 104 px",
     "same spot on 4/4 passes",
     "same AIS vessel (MMSI 341970001) on 4 passes -> anchored-vessel hypothesis"
    ],
    "score_basis": "heuristic evidence/ranking score 0-100 (not a calibrated probability)",
    "ais_evidence": "matched",
    "crop": "2026-01-06-06.png"
   }
  },
  {
   "type": "Feature",
   "geometry": {
    "type": "Point",
    "coordinates": [
     78.22633901460914,
     8.79684179357998
    ]
   },
   "properties": {
    "row": 589.2222222222222,
    "col": 76.25,
    "area_px": 36,
    "mean_intensity_db": -9.92959528511888,
    "max_intensity_db": -4.298967422936574,
    "local_background_db": -20.00971944468879,
    "contrast_db": 10.08012415956991,
    "tcr_db": 15.7,
    "eccentricity": 0.909,
    "solidity": 0.9,
    "aspect_ratio": 2.39,
    "fill_ratio": 0.65,
    "local_bg_from_global_median": false,
    "match_status": "UNMATCHED",
    "match_distance_m": 1998.0,
    "matched_mmsi": null,
    "matched_name": null,
    "matched_flag": null,
    "matched_type": null,
    "matched_hours": null,
    "detector_version": "v3.1-audit",
    "detector_config": "79d269e96db1",
    "id": "2026-01-06-07",
    "date": "2026-01-06",
    "cluster_id": 25,
    "cluster_size": 1,
    "confidence_class": "CLUTTER",
    "confidence": 13,
    "reasons": [
     "contrast 10.1 dB, 36 px",
     "contrast below 12 dB evidence threshold: not separable from sea clutter at the current bar"
    ],
    "score_basis": "heuristic evidence/ranking score 0-100 (not a calibrated probability)",
    "ais_evidence": "unmatched",
    "crop": "2026-01-06-07.png"
   }
  },
  {
   "type": "Feature",
   "geometry": {
    "type": "Point",
    "coordinates": [
     78.28380212698373,
     8.729935794362872
    ]
   },
   "properties": {
    "row": 1334.2708333333333,
    "col": 703.0208333333334,
    "area_px": 96,
    "mean_intensity_db": 5.5877392200928595,
    "max_intensity_db": 14.264806826576606,
    "local_background_db": -18.064312422541164,
    "contrast_db": 23.652051642634024,
    "tcr_db": 32.3,
    "eccentricity": 0.957,
    "solidity": 0.889,
    "aspect_ratio": 3.45,
    "fill_ratio": 0.6,
    "local_bg_from_global_median": false,
    "match_status": "MATCHED",
    "match_distance_m": 418.1,
    "matched_mmsi": "511101582",
    "matched_name": "DMC JUPITER",
    "matched_flag": "PLW",
    "matched_type": "CARGO",
    "matched_hours": 22,
    "detector_version": "v3.1-audit",
    "detector_config": "79d269e96db1",
    "id": "2026-01-18-01",
    "date": "2026-01-18",
    "cluster_id": 7,
    "cluster_size": 1,
    "confidence_class": "VESSEL_CANDIDATE",
    "confidence": 90,
    "reasons": [
     "contrast 23.7 dB, 96 px",
     "AIS vessel matched by us nearby (DMC JUPITER, 418 m)"
    ],
    "score_basis": "heuristic evidence/ranking score 0-100 (not a calibrated probability)",
    "ais_evidence": "matched",
    "crop": "2026-01-18-01.png"
   }
  },
  {
   "type": "Feature",
   "geometry": {
    "type": "Point",
    "coordinates": [
     78.2694143084484,
     8.740594257753429
    ]
   },
   "properties": {
    "row": 1215.1630434782608,
    "col": 545.445652173913,
    "area_px": 92,
    "mean_intensity_db": 3.2958293046925182,
    "max_intensity_db": 17.841999896035613,
    "local_background_db": -18.509791604826226,
    "contrast_db": 21.805620909518744,
    "tcr_db": 36.4,
    "eccentricity": 0.803,
    "solidity": 0.911,
    "aspect_ratio": 1.68,
    "fill_ratio": 0.68,
    "local_bg_from_global_median": false,
    "match_status": "MATCHED",
    "match_distance_m": 92.0,
    "matched_mmsi": "341970001",
    "matched_name": "NEREUS PROGRESS",
    "matched_flag": "KNA",
    "matched_type": "OTHER",
    "matched_hours": 7,
    "detector_version": "v3.1-audit",
    "detector_config": "79d269e96db1",
    "id": "2026-01-18-02",
    "date": "2026-01-18",
    "cluster_id": 11,
    "cluster_size": 4,
    "confidence_class": "ANCHORED_VESSEL",
    "confidence": 100,
    "reasons": [
     "contrast 21.8 dB, 92 px",
     "same spot on 4/4 passes",
     "same AIS vessel (MMSI 341970001) on 4 passes -> anchored-vessel hypothesis"
    ],
    "score_basis": "heuristic evidence/ranking score 0-100 (not a calibrated probability)",
    "ais_evidence": "matched",
    "crop": "2026-01-18-02.png"
   }
  },
  {
   "type": "Feature",
   "geometry": {
    "type": "Point",
    "coordinates": [
     78.2735235355074,
     8.7510826386197
    ]
   },
   "properties": {
    "row": 1099.4095238095238,
    "col": 591.5333333333333,
    "area_px": 105,
    "mean_intensity_db": 9.354832390353812,
    "max_intensity_db": 19.613196884465843,
    "local_background_db": -16.36802916456719,
    "contrast_db": 25.722861554921003,
    "tcr_db": 36.0,
    "eccentricity": 0.977,
    "solidity": 0.795,
    "aspect_ratio": 4.74,
    "fill_ratio": 0.44,
    "local_bg_from_global_median": false,
    "match_status": "MATCHED",
    "match_distance_m": 405.9,
    "matched_mmsi": "538005363",
    "matched_name": "SSI DIGNITY",
    "matched_flag": "MHL",
    "matched_type": "CARGO",
    "matched_hours": 24,
    "detector_version": "v3.1-audit",
    "detector_config": "79d269e96db1",
    "id": "2026-01-18-03",
    "date": "2026-01-18",
    "cluster_id": 14,
    "cluster_size": 1,
    "confidence_class": "VESSEL_CANDIDATE",
    "confidence": 90,
    "reasons": [
     "contrast 25.7 dB, 105 px",
     "AIS vessel matched by us nearby (SSI DIGNITY, 406 m)"
    ],
    "score_basis": "heuristic evidence/ranking score 0-100 (not a calibrated probability)",
    "ais_evidence": "matched",
    "crop": "2026-01-18-03.png"
   }
  },
  {
   "type": "Feature",
   "geometry": {
    "type": "Point",
    "coordinates": [
     78.27387363090735,
     8.752477471415515
    ]
   },
   "properties": {
    "row": 1084.0,
    "col": 595.5,
    "area_px": 8,
    "mean_intensity_db": 6.854381134780423,
    "max_intensity_db": 9.30153587296013,
    "local_background_db": -1.8274050780345168,
    "contrast_db": 8.68178621281494,
    "tcr_db": 11.1,
    "eccentricity": 0.577,
    "solidity": 1.0,
    "aspect_ratio": 1.22,
    "fill_ratio": 0.67,
    "local_bg_from_global_median": false,
    "match_status": "MATCHED",
    "match_distance_m": 507.4,
    "matched_mmsi": "538005363",
    "matched_name": "SSI DIGNITY",
    "matched_flag": "MHL",
    "matched_type": "CARGO",
    "matched_hours": 24,
    "detector_version": "v3.1-audit",
    "detector_config": "79d269e96db1",
    "id": "2026-01-18-04",
    "date": "2026-01-18",
    "cluster_id": 15,
    "cluster_size": 1,
    "confidence_class": "CLUTTER",
    "confidence": 7,
    "reasons": [
     "contrast 8.7 dB, 8 px",
     "contrast below 12 dB evidence threshold: not separable from sea clutter at the current bar"
    ],
    "score_basis": "heuristic evidence/ranking score 0-100 (not a calibrated probability)",
    "ais_evidence": "matched",
    "crop": "2026-01-18-04.png"
   }
  },
  {
   "type": "Feature",
   "geometry": {
    "type": "Point",
    "coordinates": [
     78.25664829837997,
     8.766899672899614
    ]
   },
   "properties": {
    "row": 923.0,
    "col": 407.0,
    "area_px": 5,
    "mean_intensity_db": -12.000454469597022,
    "max_intensity_db": -10.745040516598102,
    "local_background_db": -19.0775906848931,
    "contrast_db": 7.077136215296077,
    "tcr_db": 8.3,
    "eccentricity": 0.0,
    "solidity": 1.0,
    "aspect_ratio": 1.0,
    "fill_ratio": 0.56,
    "local_bg_from_global_median": false,
    "match_status": "UNMATCHED",
    "match_distance_m": 2383.9,
    "matched_mmsi": null,
    "matched_name": null,
    "matched_flag": null,
    "matched_type": null,
    "matched_hours": null,
    "detector_version": "v3.1-audit",
    "detector_config": "79d269e96db1",
    "id": "2026-01-18-05",
    "date": "2026-01-18",
    "cluster_id": 16,
    "cluster_size": 1,
    "confidence_class": "CLUTTER",
    "confidence": 3,
    "reasons": [
     "contrast 7.1 dB, 5 px",
     "contrast below 12 dB evidence threshold: not separable from sea clutter at the current bar"
    ],
    "score_basis": "heuristic evidence/ranking score 0-100 (not a calibrated probability)",
    "ais_evidence": "unmatched",
    "crop": "2026-01-18-05.png"
   }
  },
  {
   "type": "Feature",
   "geometry": {
    "type": "Point",
    "coordinates": [
     78.2821848188143,
     8.793332276682882
    ]
   },
   "properties": {
    "row": 632.5,
    "col": 690.2857142857143,
    "area_px": 14,
    "mean_intensity_db": -11.457333388118832,
    "max_intensity_db": -9.375120610479819,
    "local_background_db": -19.075629129071924,
    "contrast_db": 7.6182957409530925,
    "tcr_db": 9.7,
    "eccentricity": 0.851,
    "solidity": 0.933,
    "aspect_ratio": 1.9,
    "fill_ratio": 0.58,
    "local_bg_from_global_median": false,
    "match_status": "UNMATCHED",
    "match_distance_m": 5001.0,
    "matched_mmsi": null,
    "matched_name": null,
    "matched_flag": null,
    "matched_type": null,
    "matched_hours": null,
    "detector_version": "v3.1-audit",
    "detector_config": "79d269e96db1",
    "id": "2026-01-18-06",
    "date": "2026-01-18",
    "cluster_id": 21,
    "cluster_size": 1,
    "confidence_class": "CLUTTER",
    "confidence": 7,
    "reasons": [
     "contrast 7.6 dB, 14 px",
     "contrast below 12 dB evidence threshold: not separable from sea clutter at the current bar"
    ],
    "score_basis": "heuristic evidence/ranking score 0-100 (not a calibrated probability)",
    "ais_evidence": "unmatched",
    "crop": "2026-01-18-06.png"
   }
  },
  {
   "type": "Feature",
   "geometry": {
    "type": "Point",
    "coordinates": [
     78.22821854259266,
     8.79536022592768
    ]
   },
   "properties": {
    "row": 605.7,
    "col": 96.3,
    "area_px": 10,
    "mean_intensity_db": -11.531738958904448,
    "max_intensity_db": -9.274131422909798,
    "local_background_db": -19.388798562170525,
    "contrast_db": 7.857059603266077,
    "tcr_db": 10.1,
    "eccentricity": 0.616,
    "solidity": 1.0,
    "aspect_ratio": 1.27,
    "fill_ratio": 0.62,
    "local_bg_from_global_median": false,
    "match_status": "UNMATCHED",
    "match_distance_m": 5047.6,
    "matched_mmsi": null,
    "matched_name": null,
    "matched_flag": null,
    "matched_type": null,
    "matched_hours": null,
    "detector_version": "v3.1-audit",
    "detector_config": "79d269e96db1",
    "id": "2026-01-18-07",
    "date": "2026-01-18",
    "cluster_id": 24,
    "cluster_size": 1,
    "confidence_class": "CLUTTER",
    "confidence": 6,
    "reasons": [
     "contrast 7.9 dB, 10 px",
     "contrast below 12 dB evidence threshold: not separable from sea clutter at the current bar"
    ],
    "score_basis": "heuristic evidence/ranking score 0-100 (not a calibrated probability)",
    "ais_evidence": "unmatched",
    "crop": "2026-01-18-07.png"
   }
  },
  {
   "type": "Feature",
   "geometry": {
    "type": "Point",
    "coordinates": [
     78.31499642296723,
     8.799395710720587
    ]
   },
   "properties": {
    "row": 568.0,
    "col": 1052.0,
    "area_px": 5,
    "mean_intensity_db": -13.46815048483875,
    "max_intensity_db": -12.573060779962383,
    "local_background_db": -19.798892566989757,
    "contrast_db": 6.330742082151007,
    "tcr_db": 7.2,
    "eccentricity": 0.0,
    "solidity": 1.0,
    "aspect_ratio": 1.0,
    "fill_ratio": 0.56,
    "local_bg_from_global_median": false,
    "match_status": "UNMATCHED",
    "match_distance_m": 7153.0,
    "matched_mmsi": null,
    "matched_name": null,
    "matched_flag": null,
    "matched_type": null,
    "matched_hours": null,
    "detector_version": "v3.1-audit",
    "detector_config": "79d269e96db1",
    "id": "2026-01-18-08",
    "date": "2026-01-18",
    "cluster_id": 26,
    "cluster_size": 1,
    "confidence_class": "CLUTTER",
    "confidence": 2,
    "reasons": [
     "contrast 6.3 dB, 5 px",
     "contrast below 12 dB evidence threshold: not separable from sea clutter at the current bar"
    ],
    "score_basis": "heuristic evidence/ranking score 0-100 (not a calibrated probability)",
    "ais_evidence": "unmatched",
    "crop": "2026-01-18-08.png"
   }
  },
  {
   "type": "Feature",
   "geometry": {
    "type": "Point",
    "coordinates": [
     78.28298613190181,
     8.726443669652214
    ]
   },
   "properties": {
    "row": 1372.746153846154,
    "col": 693.776923076923,
    "area_px": 130,
    "mean_intensity_db": 5.354683493283,
    "max_intensity_db": 16.199086339509496,
    "local_background_db": -18.6412074338797,
    "contrast_db": 23.995890927162698,
    "tcr_db": 34.8,
    "eccentricity": 0.978,
    "solidity": 0.726,
    "aspect_ratio": 4.76,
    "fill_ratio": 0.36,
    "local_bg_from_global_median": false,
    "match_status": "MATCHED",
    "match_distance_m": 514.0,
    "matched_mmsi": "538009555",
    "matched_name": "FJ CAMELIA",
    "matched_flag": "MHL",
    "matched_type": "CARGO",
    "matched_hours": 24,
    "detector_version": "v3.1-audit",
    "detector_config": "79d269e96db1",
    "id": "2026-01-30-01",
    "date": "2026-01-30",
    "cluster_id": 5,
    "cluster_size": 1,
    "confidence_class": "VESSEL_CANDIDATE",
    "confidence": 90,
    "reasons": [
     "contrast 24.0 dB, 130 px",
     "AIS vessel matched by us nearby (FJ CAMELIA, 514 m)"
    ],
    "score_basis": "heuristic evidence/ranking score 0-100 (not a calibrated probability)",
    "ais_evidence": "matched",
    "crop": "2026-01-30-01.png"
   }
  },
  {
   "type": "Feature",
   "geometry": {
    "type": "Point",
    "coordinates": [
     78.25706878838074,
     8.734057225427444
    ]
   },
   "properties": {
    "row": 1286.4166666666667,
    "col": 409.0,
    "area_px": 12,
    "mean_intensity_db": -13.190657901911841,
    "max_intensity_db": -12.108709798601407,
    "local_background_db": -20.300793154671624,
    "contrast_db": 7.1101352527597825,
    "tcr_db": 8.2,
    "eccentricity": 0.882,
    "solidity": 0.857,
    "aspect_ratio": 2.12,
    "fill_ratio": 0.67,
    "local_bg_from_global_median": false,
    "match_status": "MATCHED",
    "match_distance_m": 898.4,
    "matched_mmsi": "419001810",
    "matched_name": "CHOLA TREASURE",
    "matched_flag": "IND",
    "matched_type": "CARGO",
    "matched_hours": 1,
    "detector_version": "v3.1-audit",
    "detector_config": "79d269e96db1",
    "id": "2026-01-30-02",
    "date": "2026-01-30",
    "cluster_id": 9,
    "cluster_size": 1,
    "confidence_class": "CLUTTER",
    "confidence": 6,
    "reasons": [
     "contrast 7.1 dB, 12 px",
     "contrast below 12 dB evidence threshold: not separable from sea clutter at the current bar"
    ],
    "score_basis": "heuristic evidence/ranking score 0-100 (not a calibrated probability)",
    "ais_evidence": "matched",
    "crop": "2026-01-30-02.png"
   }
  },
  {
   "type": "Feature",
   "geometry": {
    "type": "Point",
    "coordinates": [
     78.26925682616469,
     8.740717392576546
    ]
   },
   "properties": {
    "row": 1213.6785714285713,
    "col": 543.7410714285714,
    "area_px": 112,
    "mean_intensity_db": -0.3592940468867263,
    "max_intensity_db": 7.391074692904228,
    "local_background_db": -20.187421401008656,
    "contrast_db": 19.82812735412193,
    "tcr_db": 27.6,
    "eccentricity": 0.884,
    "solidity": 0.83,
    "aspect_ratio": 2.14,
    "fill_ratio": 0.54,
    "local_bg_from_global_median": false,
    "match_status": "MATCHED",
    "match_distance_m": 113.9,
    "matched_mmsi": "341970001",
    "matched_name": "NEREUS PROGRESS",
    "matched_flag": "KNA",
    "matched_type": "OTHER",
    "matched_hours": 9,
    "detector_version": "v3.1-audit",
    "detector_config": "79d269e96db1",
    "id": "2026-01-30-03",
    "date": "2026-01-30",
    "cluster_id": 11,
    "cluster_size": 4,
    "confidence_class": "ANCHORED_VESSEL",
    "confidence": 100,
    "reasons": [
     "contrast 19.8 dB, 112 px",
     "same spot on 4/4 passes",
     "same AIS vessel (MMSI 341970001) on 4 passes -> anchored-vessel hypothesis"
    ],
    "score_basis": "heuristic evidence/ranking score 0-100 (not a calibrated probability)",
    "ais_evidence": "matched",
    "crop": "2026-01-30-03.png"
   }
  },
  {
   "type": "Feature",
   "geometry": {
    "type": "Point",
    "coordinates": [
     78.26114609120897,
     8.747767657071613
    ]
   },
   "properties": {
    "row": 1135.0,
    "col": 455.0,
    "area_px": 5,
    "mean_intensity_db": -12.456799692568724,
    "max_intensity_db": -11.019526090152356,
    "local_background_db": -20.14867042274684,
    "contrast_db": 7.691870730178115,
    "tcr_db": 9.1,
    "eccentricity": 0.0,
    "solidity": 1.0,
    "aspect_ratio": 1.0,
    "fill_ratio": 0.56,
    "local_bg_from_global_median": false,
    "match_status": "MATCHED",
    "match_distance_m": 1249.9,
    "matched_mmsi": "341203002",
    "matched_name": "TB.SURYA 1",
    "matched_flag": "KNA",
    "matched_type": "OTHER",
    "matched_hours": 1,
    "detector_version": "v3.1-audit",
    "detector_config": "79d269e96db1",
    "id": "2026-01-30-04",
    "date": "2026-01-30",
    "cluster_id": 12,
    "cluster_size": 1,
    "confidence_class": "CLUTTER",
    "confidence": 4,
    "reasons": [
     "contrast 7.7 dB, 5 px",
     "contrast below 12 dB evidence threshold: not separable from sea clutter at the current bar"
    ],
    "score_basis": "heuristic evidence/ranking score 0-100 (not a calibrated probability)",
    "ais_evidence": "matched",
    "crop": "2026-01-30-04.png"
   }
  },
  {
   "type": "Feature",
   "geometry": {
    "type": "Point",
    "coordinates": [
     78.28257535118952,
     8.748114455378627
    ]
   },
   "properties": {
    "row": 1132.871794871795,
    "col": 690.982905982906,
    "area_px": 117,
    "mean_intensity_db": 4.55729805487629,
    "max_intensity_db": 13.138693998114254,
    "local_background_db": -19.11082408127087,
    "contrast_db": 23.66812213614716,
    "tcr_db": 32.2,
    "eccentricity": 0.961,
    "solidity": 0.848,
    "aspect_ratio": 3.61,
    "fill_ratio": 0.43,
    "local_bg_from_global_median": false,
    "match_status": "MATCHED",
    "match_distance_m": 352.3,
    "matched_mmsi": "636020701",
    "matched_name": "MSC KYMEA II",
    "matched_flag": "LBR",
    "matched_type": "CARGO",
    "matched_hours": 2,
    "detector_version": "v3.1-audit",
    "detector_config": "79d269e96db1",
    "id": "2026-01-30-05",
    "date": "2026-01-30",
    "cluster_id": 13,
    "cluster_size": 1,
    "confidence_class": "VESSEL_CANDIDATE",
    "confidence": 90,
    "reasons": [
     "contrast 23.7 dB, 117 px",
     "AIS vessel matched by us nearby (MSC KYMEA II, 352 m)"
    ],
    "score_basis": "heuristic evidence/ranking score 0-100 (not a calibrated probability)",
    "ais_evidence": "matched",
    "crop": "2026-01-30-05.png"
   }
  },
  {
   "type": "Feature",
   "geometry": {
    "type": "Point",
    "coordinates": [
     78.28510301274807,
     8.775453281244346
    ]
   },
   "properties": {
    "row": 830.5,
    "col": 721.0,
    "area_px": 8,
    "mean_intensity_db": -11.608371580308125,
    "max_intensity_db": -9.30547772368803,
    "local_background_db": -20.691687408269722,
    "contrast_db": 9.083315827961597,
    "tcr_db": 11.4,
    "eccentricity": 0.577,
    "solidity": 1.0,
    "aspect_ratio": 1.22,
    "fill_ratio": 0.67,
    "local_bg_from_global_median": false,
    "match_status": "UNMATCHED",
    "match_distance_m": 2373.6,
    "matched_mmsi": null,
    "matched_name": null,
    "matched_flag": null,
    "matched_type": null,
    "matched_hours": null,
    "detector_version": "v3.1-audit",
    "detector_config": "79d269e96db1",
    "id": "2026-01-30-06",
    "date": "2026-01-30",
    "cluster_id": 17,
    "cluster_size": 1,
    "confidence_class": "CLUTTER",
    "confidence": 8,
    "reasons": [
     "contrast 9.1 dB, 8 px",
     "contrast below 12 dB evidence threshold: not separable from sea clutter at the current bar"
    ],
    "score_basis": "heuristic evidence/ranking score 0-100 (not a calibrated probability)",
    "ais_evidence": "unmatched",
    "crop": "2026-01-30-06.png"
   }
  },
  {
   "type": "Feature",
   "geometry": {
    "type": "Point",
    "coordinates": [
     78.2767187290009,
     8.779323243435119
    ]
   },
   "properties": {
    "row": 787.0,
    "col": 629.0,
    "area_px": 5,
    "mean_intensity_db": -10.784860272793392,
    "max_intensity_db": -9.24241668907602,
    "local_background_db": -20.485590138500484,
    "contrast_db": 9.700729865707093,
    "tcr_db": 11.2,
    "eccentricity": 0.0,
    "solidity": 1.0,
    "aspect_ratio": 1.0,
    "fill_ratio": 0.56,
    "local_bg_from_global_median": false,
    "match_status": "UNMATCHED",
    "match_distance_m": 2937.1,
    "matched_mmsi": null,
    "matched_name": null,
    "matched_flag": null,
    "matched_type": null,
    "matched_hours": null,
    "detector_version": "v3.1-audit",
    "detector_config": "79d269e96db1",
    "id": "2026-01-30-07",
    "date": "2026-01-30",
    "cluster_id": 18,
    "cluster_size": 1,
    "confidence_class": "CLUTTER",
    "confidence": 8,
    "reasons": [
     "contrast 9.7 dB, 5 px",
     "contrast below 12 dB evidence threshold: not separable from sea clutter at the current bar"
    ],
    "score_basis": "heuristic evidence/ranking score 0-100 (not a calibrated probability)",
    "ais_evidence": "unmatched",
    "crop": "2026-01-30-07.png"
   }
  },
  {
   "type": "Feature",
   "geometry": {
    "type": "Point",
    "coordinates": [
     78.27686910506826,
     8.779875488472694
    ]
   },
   "properties": {
    "row": 780.9,
    "col": 630.7,
    "area_px": 20,
    "mean_intensity_db": -11.75809579681557,
    "max_intensity_db": -8.845773634940448,
    "local_background_db": -20.466545410884976,
    "contrast_db": 8.708449614069405,
    "tcr_db": 11.6,
    "eccentricity": 0.917,
    "solidity": 0.8,
    "aspect_ratio": 2.51,
    "fill_ratio": 0.62,
    "local_bg_from_global_median": false,
    "match_status": "UNMATCHED",
    "match_distance_m": 2952.7,
    "matched_mmsi": null,
    "matched_name": null,
    "matched_flag": null,
    "matched_type": null,
    "matched_hours": null,
    "detector_version": "v3.1-audit",
    "detector_config": "79d269e96db1",
    "id": "2026-01-30-08",
    "date": "2026-01-30",
    "cluster_id": 19,
    "cluster_size": 1,
    "confidence_class": "CLUTTER",
    "confidence": 11,
    "reasons": [
     "contrast 8.7 dB, 20 px",
     "contrast below 12 dB evidence threshold: not separable from sea clutter at the current bar"
    ],
    "score_basis": "heuristic evidence/ranking score 0-100 (not a calibrated probability)",
    "ais_evidence": "unmatched",
    "crop": "2026-01-30-08.png"
   }
  },
  {
   "type": "Feature",
   "geometry": {
    "type": "Point",
    "coordinates": [
     78.29117296963712,
     8.790089242066665
    ]
   },
   "properties": {
    "row": 669.0,
    "col": 789.0,
    "area_px": 5,
    "mean_intensity_db": -12.997092016711738,
    "max_intensity_db": -11.830111791495355,
    "local_background_db": -20.37034582844474,
    "contrast_db": 7.373253811733003,
    "tcr_db": 8.5,
    "eccentricity": 0.0,
    "solidity": 1.0,
    "aspect_ratio": 1.0,
    "fill_ratio": 0.56,
    "local_bg_from_global_median": false,
    "match_status": "UNMATCHED",
    "match_distance_m": 3483.6,
    "matched_mmsi": null,
    "matched_name": null,
    "matched_flag": null,
    "matched_type": null,
    "matched_hours": null,
    "detector_version": "v3.1-audit",
    "detector_config": "79d269e96db1",
    "id": "2026-01-30-09",
    "date": "2026-01-30",
    "cluster_id": 20,
    "cluster_size": 1,
    "confidence_class": "CLUTTER",
    "confidence": 4,
    "reasons": [
     "contrast 7.4 dB, 5 px",
     "contrast below 12 dB evidence threshold: not separable from sea clutter at the current bar"
    ],
    "score_basis": "heuristic evidence/ranking score 0-100 (not a calibrated probability)",
    "ais_evidence": "unmatched",
    "crop": "2026-01-30-09.png"
   }
  },
  {
   "type": "Feature",
   "geometry": {
    "type": "Point",
    "coordinates": [
     78.22718334138924,
     8.794954238526868
    ]
   },
   "properties": {
    "row": 610.0,
    "col": 84.88888888888889,
    "area_px": 18,
    "mean_intensity_db": -9.954869204042362,
    "max_intensity_db": -6.684833888158506,
    "local_background_db": -19.818523524015387,
    "contrast_db": 9.863654319973024,
    "tcr_db": 13.1,
    "eccentricity": 0.844,
    "solidity": 0.9,
    "aspect_ratio": 1.87,
    "fill_ratio": 0.64,
    "local_bg_from_global_median": false,
    "match_status": "UNMATCHED",
    "match_distance_m": 2884.8,
    "matched_mmsi": null,
    "matched_name": null,
    "matched_flag": null,
    "matched_type": null,
    "matched_hours": null,
    "detector_version": "v3.1-audit",
    "detector_config": "79d269e96db1",
    "id": "2026-01-30-10",
    "date": "2026-01-30",
    "cluster_id": 22,
    "cluster_size": 1,
    "confidence_class": "CLUTTER",
    "confidence": 12,
    "reasons": [
     "contrast 9.9 dB, 18 px",
     "contrast below 12 dB evidence threshold: not separable from sea clutter at the current bar"
    ],
    "score_basis": "heuristic evidence/ranking score 0-100 (not a calibrated probability)",
    "ais_evidence": "unmatched",
    "crop": "2026-01-30-10.png"
   }
  },
  {
   "type": "Feature",
   "geometry": {
    "type": "Point",
    "coordinates": [
     78.22292141684233,
     8.795374568766443
    ]
   },
   "properties": {
    "row": 605.0,
    "col": 38.0,
    "area_px": 5,
    "mean_intensity_db": -11.63505002464993,
    "max_intensity_db": -10.21592629516029,
    "local_background_db": -20.045014543807426,
    "contrast_db": 8.409964519157496,
    "tcr_db": 9.8,
    "eccentricity": 0.0,
    "solidity": 1.0,
    "aspect_ratio": 1.0,
    "fill_ratio": 0.56,
    "local_bg_from_global_median": false,
    "match_status": "UNMATCHED",
    "match_distance_m": 2839.7,
    "matched_mmsi": null,
    "matched_name": null,
    "matched_flag": null,
    "matched_type": null,
    "matched_hours": null,
    "detector_version": "v3.1-audit",
    "detector_config": "79d269e96db1",
    "id": "2026-01-30-11",
    "date": "2026-01-30",
    "cluster_id": 23,
    "cluster_size": 1,
    "confidence_class": "CLUTTER",
    "confidence": 6,
    "reasons": [
     "contrast 8.4 dB, 5 px",
     "contrast below 12 dB evidence threshold: not separable from sea clutter at the current bar"
    ],
    "score_basis": "heuristic evidence/ranking score 0-100 (not a calibrated probability)",
    "ais_evidence": "unmatched",
    "crop": "2026-01-30-11.png"
   }
  },
  {
   "type": "Feature",
   "geometry": {
    "type": "Point",
    "coordinates": [
     78.22415251580999,
     8.800804652282517
    ]
   },
   "properties": {
    "row": 545.0,
    "col": 52.0,
    "area_px": 5,
    "mean_intensity_db": -11.796740903074895,
    "max_intensity_db": -11.06108748988252,
    "local_background_db": -19.721659973964385,
    "contrast_db": 7.924919070889491,
    "tcr_db": 8.7,
    "eccentricity": 0.0,
    "solidity": 1.0,
    "aspect_ratio": 1.0,
    "fill_ratio": 0.56,
    "local_bg_from_global_median": false,
    "match_status": "UNMATCHED",
    "match_distance_m": 3455.6,
    "matched_mmsi": null,
    "matched_name": null,
    "matched_flag": null,
    "matched_type": null,
    "matched_hours": null,
    "detector_version": "v3.1-audit",
    "detector_config": "79d269e96db1",
    "id": "2026-01-30-12",
    "date": "2026-01-30",
    "cluster_id": 27,
    "cluster_size": 1,
    "confidence_class": "CLUTTER",
    "confidence": 5,
    "reasons": [
     "contrast 7.9 dB, 5 px",
     "contrast below 12 dB evidence threshold: not separable from sea clutter at the current bar"
    ],
    "score_basis": "heuristic evidence/ranking score 0-100 (not a calibrated probability)",
    "ais_evidence": "unmatched",
    "crop": "2026-01-30-12.png"
   }
  },
  {
   "type": "Feature",
   "geometry": {
    "type": "Point",
    "coordinates": [
     78.29362812696611,
     8.802214472966828
    ]
   },
   "properties": {
    "row": 535.0,
    "col": 817.0,
    "area_px": 5,
    "mean_intensity_db": -11.78062982563428,
    "max_intensity_db": -10.569468650008966,
    "local_background_db": -20.063188423854022,
    "contrast_db": 8.282558598219742,
    "tcr_db": 9.5,
    "eccentricity": 0.0,
    "solidity": 1.0,
    "aspect_ratio": 1.0,
    "fill_ratio": 0.56,
    "local_bg_from_global_median": false,
    "match_status": "UNMATCHED",
    "match_distance_m": 4746.0,
    "matched_mmsi": null,
    "matched_name": null,
    "matched_flag": null,
    "matched_type": null,
    "matched_hours": null,
    "detector_version": "v3.1-audit",
    "detector_config": "79d269e96db1",
    "id": "2026-01-30-13",
    "date": "2026-01-30",
    "cluster_id": 28,
    "cluster_size": 1,
    "confidence_class": "CLUTTER",
    "confidence": 5,
    "reasons": [
     "contrast 8.3 dB, 5 px",
     "contrast below 12 dB evidence threshold: not separable from sea clutter at the current bar"
    ],
    "score_basis": "heuristic evidence/ranking score 0-100 (not a calibrated probability)",
    "ais_evidence": "unmatched",
    "crop": "2026-01-30-13.png"
   }
  },
  {
   "type": "Feature",
   "geometry": {
    "type": "Point",
    "coordinates": [
     78.23216682664814,
     8.84667142601673
    ]
   },
   "properties": {
    "row": 38.0,
    "col": 144.0,
    "area_px": 5,
    "mean_intensity_db": -13.969735861395108,
    "max_intensity_db": -13.46263737860519,
    "local_background_db": -20.389469434819624,
    "contrast_db": 6.419733573424516,
    "tcr_db": 6.9,
    "eccentricity": 0.0,
    "solidity": 1.0,
    "aspect_ratio": 1.0,
    "fill_ratio": 0.56,
    "local_bg_from_global_median": false,
    "match_status": "MATCHED",
    "match_distance_m": 1136.1,
    "matched_mmsi": "419819609",
    "matched_name": "ST MATHA NET BOAT",
    "matched_flag": "IND",
    "matched_type": "GEAR",
    "matched_hours": 1,
    "detector_version": "v3.1-audit",
    "detector_config": "79d269e96db1",
    "id": "2026-01-30-14",
    "date": "2026-01-30",
    "cluster_id": 31,
    "cluster_size": 1,
    "confidence_class": "CLUTTER",
    "confidence": 2,
    "reasons": [
     "contrast 6.4 dB, 5 px",
     "contrast below 12 dB evidence threshold: not separable from sea clutter at the current bar"
    ],
    "score_basis": "heuristic evidence/ranking score 0-100 (not a calibrated probability)",
    "ais_evidence": "matched",
    "crop": "2026-01-30-14.png"
   }
  },
  {
   "type": "Feature",
   "geometry": {
    "type": "Point",
    "coordinates": [
     78.27139142918362,
     8.726385008872173
    ]
   },
   "properties": {
    "row": 1372.2068965517242,
    "col": 565.9310344827586,
    "area_px": 58,
    "mean_intensity_db": -0.9865782425856324,
    "max_intensity_db": 10.335101178296721,
    "local_background_db": -18.530257930557188,
    "contrast_db": 17.543679687971554,
    "tcr_db": 28.9,
    "eccentricity": 0.871,
    "solidity": 0.935,
    "aspect_ratio": 2.04,
    "fill_ratio": 0.6,
    "local_bg_from_global_median": false,
    "match_status": "MATCHED",
    "match_distance_m": 430.2,
    "matched_mmsi": "567593000",
    "matched_name": "SEA VALARY",
    "matched_flag": "THA",
    "matched_type": "OTHER",
    "matched_hours": 24,
    "detector_version": "v3.1-audit",
    "detector_config": "79d269e96db1",
    "id": "2026-02-11-01",
    "date": "2026-02-11",
    "cluster_id": 4,
    "cluster_size": 1,
    "confidence_class": "VESSEL_CANDIDATE",
    "confidence": 84,
    "reasons": [
     "contrast 17.5 dB, 58 px",
     "AIS vessel matched by us nearby (SEA VALARY, 430 m)"
    ],
    "score_basis": "heuristic evidence/ranking score 0-100 (not a calibrated probability)",
    "ais_evidence": "matched",
    "crop": "2026-02-11-01.png"
   }
  },
  {
   "type": "Feature",
   "geometry": {
    "type": "Point",
    "coordinates": [
     78.23787980306311,
     8.739804179020599
    ]
   },
   "properties": {
    "row": 1221.0,
    "col": 198.0,
    "area_px": 5,
    "mean_intensity_db": -13.315353456509992,
    "max_intensity_db": -12.661379473466386,
    "local_background_db": -19.942040392886746,
    "contrast_db": 6.626686936376753,
    "tcr_db": 7.3,
    "eccentricity": 0.0,
    "solidity": 1.0,
    "aspect_ratio": 1.0,
    "fill_ratio": 0.56,
    "local_bg_from_global_median": true,
    "match_status": "MATCHED",
    "match_distance_m": 233.8,
    "matched_mmsi": "419801937",
    "matched_name": "RIVER PEARL 36",
    "matched_flag": "IND",
    "matched_type": "OTHER",
    "matched_hours": 1,
    "detector_version": "v3.1-audit",
    "detector_config": "79d269e96db1",
    "id": "2026-02-11-02",
    "date": "2026-02-11",
    "cluster_id": 10,
    "cluster_size": 1,
    "confidence_class": "CLUTTER",
    "confidence": 3,
    "reasons": [
     "contrast 6.6 dB, 5 px",
     "contrast below 12 dB evidence threshold: not separable from sea clutter at the current bar"
    ],
    "score_basis": "heuristic evidence/ranking score 0-100 (not a calibrated probability)",
    "ais_evidence": "matched",
    "crop": "2026-02-11-02.png"
   }
  },
  {
   "type": "Feature",
   "geometry": {
    "type": "Point",
    "coordinates": [
     78.26900032555648,
     8.74050660021058
    ]
   },
   "properties": {
    "row": 1215.7238095238095,
    "col": 540.7333333333333,
    "area_px": 105,
    "mean_intensity_db": 0.9567948870712325,
    "max_intensity_db": 9.518649969017734,
    "local_background_db": -18.475169274178068,
    "contrast_db": 19.4319641612493,
    "tcr_db": 28.0,
    "eccentricity": 0.895,
    "solidity": 0.861,
    "aspect_ratio": 2.24,
    "fill_ratio": 0.58,
    "local_bg_from_global_median": false,
    "match_status": "MATCHED",
    "match_distance_m": 123.1,
    "matched_mmsi": "341970001",
    "matched_name": "NEREUS PROGRESS",
    "matched_flag": "KNA",
    "matched_type": "OTHER",
    "matched_hours": 1,
    "detector_version": "v3.1-audit",
    "detector_config": "79d269e96db1",
    "id": "2026-02-11-03",
    "date": "2026-02-11",
    "cluster_id": 11,
    "cluster_size": 4,
    "confidence_class": "ANCHORED_VESSEL",
    "confidence": 99,
    "reasons": [
     "contrast 19.4 dB, 105 px",
     "same spot on 4/4 passes",
     "same AIS vessel (MMSI 341970001) on 4 passes -> anchored-vessel hypothesis"
    ],
    "score_basis": "heuristic evidence/ranking score 0-100 (not a calibrated probability)",
    "ais_evidence": "matched",
    "crop": "2026-02-11-03.png"
   }
  },
  {
   "type": "Feature",
   "geometry": {
    "type": "Point",
    "coordinates": [
     78.31300859385505,
     8.82491837469925
    ]
   },
   "properties": {
    "row": 285.0,
    "col": 1032.0,
    "area_px": 5,
    "mean_intensity_db": -13.205746180769177,
    "max_intensity_db": -11.938456393191748,
    "local_background_db": -20.09455892276998,
    "contrast_db": 6.888812742000804,
    "tcr_db": 8.2,
    "eccentricity": 0.0,
    "solidity": 1.0,
    "aspect_ratio": 1.0,
    "fill_ratio": 0.56,
    "local_bg_from_global_median": false,
    "match_status": "UNMATCHED",
    "match_distance_m": 3988.5,
    "matched_mmsi": null,
    "matched_name": null,
    "matched_flag": null,
    "matched_type": null,
    "matched_hours": null,
    "detector_version": "v3.1-audit",
    "detector_config": "79d269e96db1",
    "id": "2026-02-11-04",
    "date": "2026-02-11",
    "cluster_id": 29,
    "cluster_size": 1,
    "confidence_class": "CLUTTER",
    "confidence": 3,
    "reasons": [
     "contrast 6.9 dB, 5 px",
     "contrast below 12 dB evidence threshold: not separable from sea clutter at the current bar"
    ],
    "score_basis": "heuristic evidence/ranking score 0-100 (not a calibrated probability)",
    "ais_evidence": "unmatched",
    "crop": "2026-02-11-04.png"
   }
  },
  {
   "type": "Feature",
   "geometry": {
    "type": "Point",
    "coordinates": [
     78.2540203626895,
     8.841748534708248
    ]
   },
   "properties": {
    "row": 94.0,
    "col": 384.0,
    "area_px": 5,
    "mean_intensity_db": -13.935308110284845,
    "max_intensity_db": -13.347194017075402,
    "local_background_db": -20.400842871564254,
    "contrast_db": 6.465534761279409,
    "tcr_db": 7.1,
    "eccentricity": 0.0,
    "solidity": 1.0,
    "aspect_ratio": 1.0,
    "fill_ratio": 0.56,
    "local_bg_from_global_median": false,
    "match_status": "UNMATCHED",
    "match_distance_m": 4539.9,
    "matched_mmsi": null,
    "matched_name": null,
    "matched_flag": null,
    "matched_type": null,
    "matched_hours": null,
    "detector_version": "v3.1-audit",
    "detector_config": "79d269e96db1",
    "id": "2026-02-11-05",
    "date": "2026-02-11",
    "cluster_id": 30,
    "cluster_size": 1,
    "confidence_class": "CLUTTER",
    "confidence": 2,
    "reasons": [
     "contrast 6.5 dB, 5 px",
     "contrast below 12 dB evidence threshold: not separable from sea clutter at the current bar"
    ],
    "score_basis": "heuristic evidence/ranking score 0-100 (not a calibrated probability)",
    "ais_evidence": "unmatched",
    "crop": "2026-02-11-05.png"
   }
  }
 ]
}